{
  "type": "FeatureCollection",
  "features": [
    {
      "type": "Feature",
      "properties": {
        "norad_id": 58647,
        "name": "TIANMU-1 13",
        "group": "weather",
        "lat": 38.38279085094468,
        "lon": -158.18195909749892,
        "alt_km": 488.5600468608691,
        "timestamp": "2025-12-22T11:33:20.072392+00:00",
        "meta_object_name": "TIANMU-1 13",
        "meta_object_id": "2023-205C",
        "meta_epoch": "2025-12-22T04:38:14.493120",
        "meta_mean_motion": 15.24635735,
        "meta_eccentricity": 0.0006417,
        "meta_inclination": 97.3608,
        "meta_ra_of_asc_node": 15.6576,
        "meta_arg_of_pericenter": 225.3325,
        "meta_mean_anomaly": 134.7391,
        "meta_ephemeris_type": 0,
        "meta_classification_type": "U",
        "meta_norad_cat_id": 58647,
        "meta_element_set_no": 999,
        "meta_rev_at_epoch": 11051,
        "meta_bstar": 0.00027275,
        "meta_mean_motion_dot": 6.665e-05,
        "meta_mean_motion_ddot": 0,
        "tle_line1": "1 58647U 23205C   25356.19322330  .00006665  00000+0  27275-3 0  9994",
        "tle_line2": "2 58647  97.3608  15.6576 0006417 225.3325 134.7391 15.24635735110512"
      },
      "geometry": {
        "type": "Point",
        "coordinates": [
          -158.18195909749892,
          38.38279085094468
        ]
      }
    },
    {
      "type": "Feature",
      "properties": {
        "norad_id": 58648,
        "name": "TIANMU-1 14",
        "group": "weather",
        "lat": -51.16942038727061,
        "lon": -173.95294652104752,
        "alt_km": 494.00906707455215,
        "timestamp": "2025-12-22T11:33:20.072408+00:00",
        "meta_object_name": "TIANMU-1 14",
        "meta_object_id": "2023-205D",
        "meta_epoch": "2025-12-22T04:14:29.149728",
        "meta_mean_motion": 15.24618568,
        "meta_eccentricity": 0.0007127,
        "meta_inclination": 97.3541,
        "meta_ra_of_asc_node": 14.9814,
        "meta_arg_of_pericenter": 231.5993,
        "meta_mean_anomaly": 128.4605,
        "meta_ephemeris_type": 0,
        "meta_classification_type": "U",
        "meta_norad_cat_id": 58648,
        "meta_element_set_no": 999,
        "meta_rev_at_epoch": 11051,
        "meta_bstar": 0.0002572,
        "meta_mean_motion_dot": 6.279e-05,
        "meta_mean_motion_ddot": 0,
        "tle_line1": "1 58648U 23205D   25356.17672627  .00006279  00000+0  25720-3 0  9994",
        "tle_line2": "2 58648  97.3541  14.9814 0007127 231.5993 128.4605 15.24618568110518"
      },
      "geometry": {
        "type": "Point",
        "coordinates": [
          -173.95294652104752,
          -51.16942038727061
        ]
      }
    },
    {
      "type": "Feature",
      "properties": {
        "norad_id": 58660,
        "name": "TIANMU-1 19",
        "group": "weather",
        "lat": -63.70643719023583,
        "lon": -87.83449619152428,
        "alt_km": 486.35307274560273,
        "timestamp": "2025-12-22T11:33:20.072424+00:00",
        "meta_object_name": "TIANMU-1 19",
        "meta_object_id": "2023-208A",
        "meta_epoch": "2025-12-22T05:46:22.812384",
        "meta_mean_motion": 15.28012213,
        "meta_eccentricity": 0.0004603,
        "meta_inclination": 97.4394,
        "meta_ra_of_asc_node": 107.26,
        "meta_arg_of_pericenter": 211.5892,
        "meta_mean_anomaly": 148.5072,
        "meta_ephemeris_type": 0,
        "meta_classification_type": "U",
        "meta_norad_cat_id": 58660,
        "meta_element_set_no": 999,
        "meta_rev_at_epoch": 11027,
        "meta_bstar": 0.000362,
        "meta_mean_motion_dot": 9.823e-05,
        "meta_mean_motion_ddot": 0,
        "tle_line1": "1 58660U 23208A   25356.24054181  .00009823  00000+0  36200-3 0  9991",
        "tle_line2": "2 58660  97.4394 107.2600 0004603 211.5892 148.5072 15.28012213110273"
      },
      "geometry": {
        "type": "Point",
        "coordinates": [
          -87.83449619152428,
          -63.70643719023583
        ]
      }
    },
    {
      "type": "Feature",
      "properties": {
        "norad_id": 58661,
        "name": "TIANMU-1 20",
        "group": "weather",
        "lat": 0.4640528888381114,
        "lon": 107.89700431287275,
        "alt_km": 484.4572204382521,
        "timestamp": "2025-12-22T11:33:20.072441+00:00",
        "meta_object_name": "TIANMU-1 20",
        "meta_object_id": "2023-208B",
        "meta_epoch": "2025-12-22T03:42:04.505184",
        "meta_mean_motion": 15.29200314,
        "meta_eccentricity": 0.0006649,
        "meta_inclination": 97.4333,
        "meta_ra_of_asc_node": 107.6306,
        "meta_arg_of_pericenter": 226.5609,
        "meta_mean_anomaly": 133.5078,
        "meta_ephemeris_type": 0,
        "meta_classification_type": "U",
        "meta_norad_cat_id": 58661,
        "meta_element_set_no": 999,
        "meta_rev_at_epoch": 11033,
        "meta_bstar": 0.00034318,
        "meta_mean_motion_dot": 9.657e-05,
        "meta_mean_motion_ddot": 0,
        "tle_line1": "1 58661U 23208B   25356.15421881  .00009657  00000+0  34318-3 0  9990",
        "tle_line2": "2 58661  97.4333 107.6306 0006649 226.5609 133.5078 15.29200314110337"
      },
      "geometry": {
        "type": "Point",
        "coordinates": [
          107.89700431287275,
          0.4640528888381114
        ]
      }
    },
    {
      "type": "Feature",
      "properties": {
        "norad_id": 58662,
        "name": "TIANMU-1 21",
        "group": "weather",
        "lat": 81.71504173146752,
        "lon": -6.297124540250403,
        "alt_km": 465.6962734918661,
        "timestamp": "2025-12-22T11:33:20.072460+00:00",
        "meta_object_name": "TIANMU-1 21",
        "meta_object_id": "2023-208C",
        "meta_epoch": "2025-12-22T04:52:35.131296",
        "meta_mean_motion": 15.31740732,
        "meta_eccentricity": 0.0006296,
        "meta_inclination": 97.4382,
        "meta_ra_of_asc_node": 109.6306,
        "meta_arg_of_pericenter": 220.7257,
        "meta_mean_anomaly": 139.3514,
        "meta_ephemeris_type": 0,
        "meta_classification_type": "U",
        "meta_norad_cat_id": 58662,
        "meta_element_set_no": 999,
        "meta_rev_at_epoch": 11044,
        "meta_bstar": 0.00040838,
        "meta_mean_motion_dot": 0.00012451,
        "meta_mean_motion_ddot": 0,
        "tle_line1": "1 58662U 23208C   25356.20318439  .00012451  00000+0  40838-3 0  9991",
        "tle_line2": "2 58662  97.4382 109.6306 0006296 220.7257 139.3514 15.31740732110444"
      },
      "geometry": {
        "type": "Point",
        "coordinates": [
          -6.297124540250403,
          81.71504173146752
        ]
      }
    },
    {
      "type": "Feature",
      "properties": {
        "norad_id": 58663,
        "name": "TIANMU-1 22",
        "group": "weather",
        "lat": -56.34535445409095,
        "lon": -83.7627212036487,
        "alt_km": 487.678724827163,
        "timestamp": "2025-12-22T11:33:20.072477+00:00",
        "meta_object_name": "TIANMU-1 22",
        "meta_object_id": "2023-208D",
        "meta_epoch": "2025-12-22T04:13:59.975904",
        "meta_mean_motion": 15.27753627,
        "meta_eccentricity": 0.0002831,
        "meta_inclination": 97.4388,
        "meta_ra_of_asc_node": 107.2506,
        "meta_arg_of_pericenter": 237.2868,
        "meta_mean_anomaly": 122.8099,
        "meta_ephemeris_type": 0,
        "meta_classification_type": "U",
        "meta_norad_cat_id": 58663,
        "meta_element_set_no": 999,
        "meta_rev_at_epoch": 11027,
        "meta_bstar": 0.00033781,
        "meta_mean_motion_dot": 9.087e-05,
        "meta_mean_motion_ddot": 0,
        "tle_line1": "1 58663U 23208D   25356.17638861  .00009087  00000+0  33781-3 0  9992",
        "tle_line2": "2 58663  97.4388 107.2506 0002831 237.2868 122.8099 15.27753627110277"
      },
      "geometry": {
        "type": "Point",
        "coordinates": [
          -83.7627212036487,
          -56.34535445409095
        ]
      }
    },
    {
      "type": "Feature",
      "properties": {
        "norad_id": 58700,
        "name": "TIANMU-1 15",
        "group": "weather",
        "lat": -72.56339342645745,
        "lon": -26.75131662641692,
        "alt_km": 495.4226500319028,
        "timestamp": "2025-12-22T11:33:20.072492+00:00",
        "meta_object_name": "TIANMU-1 15",
        "meta_object_id": "2024-004A",
        "meta_epoch": "2025-12-22T04:08:33.512640",
        "meta_mean_motion": 15.24523862,
        "meta_eccentricity": 0.0005994,
        "meta_inclination": 97.4622,
        "meta_ra_of_asc_node": 177.6066,
        "meta_arg_of_pericenter": 250.0564,
        "meta_mean_anomaly": 110.0028,
        "meta_ephemeris_type": 0,
        "meta_classification_type": "U",
        "meta_norad_cat_id": 58700,
        "meta_element_set_no": 999,
        "meta_rev_at_epoch": 10878,
        "meta_bstar": 0.00029042,
        "meta_mean_motion_dot": 7.076e-05,
        "meta_mean_motion_ddot": 0,
        "tle_line1": "1 58700U 24004A   25356.17261010  .00007076  00000+0  29042-3 0  9998",
        "tle_line2": "2 58700  97.4622 177.6066 0005994 250.0564 110.0028 15.24523862108788"
      },
      "geometry": {
        "type": "Point",
        "coordinates": [
          -26.75131662641692,
          -72.56339342645745
        ]
      }
    }
  ]
}